{
  "type": "FeatureCollection",
  "features": [
    {
      "type": "Feature",
      "properties": {
        "norad_id": 36744,
        "name": "COMS 1",
        "group": "weather",
        "lat": -1.9270585165126115,
        "lon": -76.32790219424673,
        "alt_km": 35783.33511052563,
        "timestamp": "2025-12-27T03:58:43.824295+00:00",
        "meta_object_name": "COMS 1",
        "meta_object_id": "2010-032A",
        "meta_epoch": "2025-12-25T12:42:15.782976",
        "meta_mean_motion": 1.00270082,
        "meta_eccentricity": 8.877e-05,
        "meta_inclination": 4.3689,
        "meta_ra_of_asc_node": 77.8525,
        "meta_arg_of_pericenter": 213.8569,
        "meta_mean_anomaly": 121.3153,
        "meta_ephemeris_type": 0,
        "meta_classification_type": "U",
        "meta_norad_cat_id": 36744,
        "meta_element_set_no": 999,
        "meta_rev_at_epoch": 4934,
        "meta_bstar": 0,
        "meta_mean_motion_dot": -3.24e-06,
        "meta_mean_motion_ddot": 0,
        "tle_line1": "1 36744U 10032A   25359.52934934 -.00000324  00000+0  00000+0 0  9991",
        "tle_line2": "2 36744   4.3689  77.8525 0000887 213.8569 121.3153  1.00270082 49343"
      },
      "geometry": {
        "type": "Point",
        "coordinates": [
          -76.32790219424673,
          -1.9270585165126115
        ]
      }
    },
    {
      "type": "Feature",
      "properties": {
        "norad_id": 37214,
        "name": "FENGYUN 3B",
        "group": "weather",
        "lat": 29.12583391320724,
        "lon": 36.1825368737165,
        "alt_km": 837.089022471042,
        "timestamp": "2025-12-27T03:58:43.824307+00:00",
        "meta_object_name": "FENGYUN 3B",
        "meta_object_id": "2010-059A",
        "meta_epoch": "2025-12-26T21:52:17.669568",
        "meta_mean_motion": 14.14793995,
        "meta_eccentricity": 0.0021444,
        "meta_inclination": 98.9887,
        "meta_ra_of_asc_node": 40.986,
        "meta_arg_of_pericenter": 316.9586,
        "meta_mean_anomaly": 217.0694,
        "meta_ephemeris_type": 0,
        "meta_classification_type": "U",
        "meta_norad_cat_id": 37214,
        "meta_element_set_no": 999,
        "meta_rev_at_epoch": 78306,
        "meta_bstar": 6.425e-05,
        "meta_mean_motion_dot": 7.9e-07,
        "meta_mean_motion_ddot": 0,
        "tle_line1": "1 37214U 10059A   25360.91131562  .00000079  00000+0  64250-4 0  9992",
        "tle_line2": "2 37214  98.9887  40.9860 0021444 316.9586 217.0694 14.14793995783063"
      },
      "geometry": {
        "type": "Point",
        "coordinates": [
          36.1825368737165,
          29.12583391320724
        ]
      }
    },
    {
      "type": "Feature",
      "properties": {
        "norad_id": 37849,
        "name": "SUOMI NPP",
        "group": "weather",
        "lat": 63.58322223626168,
        "lon": 136.50113361007178,
        "alt_km": 819.12067351122,
        "timestamp": "2025-12-27T03:58:43.824319+00:00",
        "meta_object_name": "SUOMI NPP",
        "meta_object_id": "2011-061A",
        "meta_epoch": "2025-12-22T15:10:21.732672",
        "meta_mean_motion": 14.19516903,
        "meta_eccentricity": 0.00024883,
        "meta_inclination": 98.7787,
        "meta_ra_of_asc_node": 293.8852,
        "meta_arg_of_pericenter": 103.0781,
        "meta_mean_anomaly": 257.0673,
        "meta_ephemeris_type": 0,
        "meta_classification_type": "U",
        "meta_norad_cat_id": 37849,
        "meta_element_set_no": 999,
        "meta_rev_at_epoch": 73339,
        "meta_bstar": 6.3406935e-05,
        "meta_mean_motion_dot": 8.9e-07,
        "meta_mean_motion_ddot": 0,
        "tle_line1": "1 37849U 11061A   25356.63219598  .00000089  00000+0  63407-4 0  9994",
        "tle_line2": "2 37849  98.7787 293.8852 0002488 103.0781 257.0673 14.19516903733392"
      },
      "geometry": {
        "type": "Point",
        "coordinates": [
          136.50113361007178,
          63.58322223626168
        ]
      }
    },
    {
      "type": "Feature",
      "properties": {
        "norad_id": 38552,
        "name": "METEOSAT-10 (MSG-3)",
        "group": "weather",
        "lat": 4.2609915219793795,
        "lon": 155.83719752690632,
        "alt_km": 35793.06678116282,
        "timestamp": "2025-12-27T03:58:43.824331+00:00",
        "meta_object_name": "METEOSAT-10 (MSG-3)",
        "meta_object_id": "2012-035B",
        "meta_epoch": "2025-12-25T19:55:02.807904",
        "meta_mean_motion": 1.00266624,
        "meta_eccentricity": 0.0001479,
        "meta_inclination": 4.2575,
        "meta_ra_of_asc_node": 61.6862,
        "meta_arg_of_pericenter": 265.3349,
        "meta_mean_anomaly": 66.5982,
        "meta_ephemeris_type": 0,
        "meta_classification_type": "U",
        "meta_norad_cat_id": 38552,
        "meta_element_set_no": 999,
        "meta_rev_at_epoch": 4911,
        "meta_bstar": 0,
        "meta_mean_motion_dot": 1.4e-07,
        "meta_mean_motion_ddot": 0,
        "tle_line1": "1 38552U 12035B   25359.82989361  .00000014  00000+0  00000+0 0  9997",
        "tle_line2": "2 38552   4.2575  61.6862 0001479 265.3349  66.5982  1.00266624 49118"
      },
      "geometry": {
        "type": "Point",
        "coordinates": [
          155.83719752690632,
          4.2609915219793795
        ]
      }
    },
    {
      "type": "Feature",
      "properties": {
        "norad_id": 38771,
        "name": "METOP-B",
        "group": "weather",
        "lat": 63.881637170999205,
        "lon": 32.72898917329857,
        "alt_km": 812.7413602143743,
        "timestamp": "2025-12-27T03:58:43.824342+00:00",
        "meta_object_name": "METOP-B",
        "meta_object_id": "2012-049A",
        "meta_epoch": "2025-12-26T19:13:33.005280",
        "meta_mean_motion": 14.21413615,
        "meta_eccentricity": 0.0003309,
        "meta_inclination": 98.678,
        "meta_ra_of_asc_node": 50.5202,
        "meta_arg_of_pericenter": 115.0948,
        "meta_mean_anomaly": 245.0573,
        "meta_ephemeris_type": 0,
        "meta_classification_type": "U",
        "meta_norad_cat_id": 38771,
        "meta_element_set_no": 999,
        "meta_rev_at_epoch": 68877,
        "meta_bstar": 8.1243e-05,
        "meta_mean_motion_dot": 1.34e-06,
        "meta_mean_motion_ddot": 0,
        "tle_line1": "1 38771U 12049A   25360.80107645  .00000134  00000+0  81243-4 0  9998",
        "tle_line2": "2 38771  98.6780  50.5202 0003309 115.0948 245.0573 14.21413615688773"
      },
      "geometry": {
        "type": "Point",
        "coordinates": [
          32.72898917329857,
          63.881637170999205
        ]
      }
    },
    {
      "type": "Feature",
      "properties": {
        "norad_id": 39216,
        "name": "INSAT-3D",
        "group": "weather",
        "lat": -0.5324619751032399,
        "lon": -74.85802870340838,
        "alt_km": 35779.62468446964,
        "timestamp": "2025-12-27T03:58:43.824352+00:00",
        "meta_object_name": "INSAT-3D",
        "meta_object_id": "2013-038B",
        "meta_epoch": "2025-12-26T14:40:38.546400",
        "meta_mean_motion": 1.00273304,
        "meta_eccentricity": 0.0001962,
        "meta_inclination": 1.4788,
        "meta_ra_of_asc_node": 84.8393,
        "meta_arg_of_pericenter": 158.3266,
        "meta_mean_anomaly": 201.9018,
        "meta_ephemeris_type": 0,
        "meta_classification_type": "U",
        "meta_norad_cat_id": 39216,
        "meta_element_set_no": 999,
        "meta_rev_at_epoch": 4535,
        "meta_bstar": 0,
        "meta_mean_motion_dot": -3.17e-06,
        "meta_mean_motion_ddot": 0,
        "tle_line1": "1 39216U 13038B   25360.61155725 -.00000317  00000+0  00000+0 0  9994",
        "tle_line2": "2 39216   1.4788  84.8393 0001962 158.3266 201.9018  1.00273304 45353"
      },
      "geometry": {
        "type": "Point",
        "coordinates": [
          -74.85802870340838,
          -0.5324619751032399
        ]
      }
    },
    {
      "type": "Feature",
      "properties": {
        "norad_id": 39260,
        "name": "FENGYUN 3C",
        "group": "weather",
        "lat": 15.424081323384241,
        "lon": -24.216589861333066,
        "alt_km": 848.8301690207436,
        "timestamp": "2025-12-27T03:58:43.824364+00:00",
        "meta_object_name": "FENGYUN 3C",
        "meta_object_id": "2013-052A",
        "meta_epoch": "2025-12-26T21:07:12.910656",
        "meta_mean_motion": 14.1570055,
        "meta_eccentricity": 0.0015074,
        "meta_inclination": 98.478,
        "meta_ra_of_asc_node": 337.87,
        "meta_arg_of_pericenter": 155.3994,
        "meta_mean_anomaly": 204.7903,
        "meta_ephemeris_type": 0,
        "meta_classification_type": "U",
        "meta_norad_cat_id": 39260,
        "meta_element_set_no": 999,
        "meta_rev_at_epoch": 63418,
        "meta_bstar": 7.6136e-05,
        "meta_mean_motion_dot": 1.08e-06,
        "meta_mean_motion_ddot": 0,
        "tle_line1": "1 39260U 13052A   25360.88001054  .00000108  00000+0  76136-4 0  9998",
        "tle_line2": "2 39260  98.4780 337.8700 0015074 155.3994 204.7903 14.15700550634184"
      },
      "geometry": {
        "type": "Point",
        "coordinates": [
          -24.216589861333066,
          15.424081323384241
        ]
      }
    }
  ]
}